<?xml version="1.0" encoding="UTF-8"?>
<gpx xmlns="http://www.topografix.com/GPX/1/1" xmlns:gpxtpx="http://www.garmin.com/xmlschemas/TrackPointExtension/v1" xmlns:gpxtrkx="http://www.garmin.com/xmlschemas/TrackStatsExtension/v1" xmlns:gpxx="http://www.garmin.com/xmlschemas/GpxExtensions/v3" xmlns:xsi="https://www.w3.org/2001/XMLSchema-instance" creator="bergfex GmbH" version="1.1" xsi:schemaLocation="https://www.topografix.com/GPX/1/1 https://www.topografix.com/GPX/1/1/gpx.xsd"><metadata><link href="https://www.bergfex.at"><text>bergfex GmbH</text></link></metadata><trk><name>Pistentour aufs Nebelhorn</name><extensions><gpxtrkx:TrackStatsExtension><gpxtrkx:Distance>15060</gpxtrkx:Distance><gpxtrkx:TotalElapsedTime>14106</gpxtrkx:TotalElapsedTime><gpxtrkx:Ascent>1338</gpxtrkx:Ascent><gpxtrkx:Descent>1288</gpxtrkx:Descent><gpxtrkx:MaxElevation>2209</gpxtrkx:MaxElevation><gpxtrkx:MinElevation>838</gpxtrkx:MinElevation></gpxtrkx:TrackStatsExtension></extensions><trkseg><trkpt lat="47.407179" lon="10.289569"><ele>831.0</ele></trkpt><trkpt lat="47.407203" lon="10.291157"><ele>850.0</ele></trkpt><trkpt lat="47.407049" lon="10.292758"><ele>872.0</ele></trkpt><trkpt lat="47.407149" lon="10.293326"><ele>884.0</ele></trkpt><trkpt lat="47.40729" lon="10.293458"><ele>888.0</ele></trkpt><trkpt lat="47.407459" lon="10.293489"><ele>891.0</ele></trkpt><trkpt lat="47.40746" lon="10.293408"><ele>892.0</ele></trkpt><trkpt lat="47.407517" lon="10.293423"><ele>893.0</ele></trkpt><trkpt lat="47.408175" lon="10.294051"><ele>905.0</ele></trkpt><trkpt lat="47.408245" lon="10.294286"><ele>907.0</ele></trkpt><trkpt lat="47.408709" lon="10.295025"><ele>921.0</ele></trkpt><trkpt lat="47.409311" lon="10.295164"><ele>933.0</ele></trkpt><trkpt lat="47.409415" lon="10.295241"><ele>935.0</ele></trkpt><trkpt lat="47.409937" lon="10.295324"><ele>943.0</ele></trkpt><trkpt lat="47.41032" lon="10.295482"><ele>949.0</ele></trkpt><trkpt lat="47.410564" lon="10.295708"><ele>954.0</ele></trkpt><trkpt lat="47.410596" lon="10.295853"><ele>957.0</ele></trkpt><trkpt lat="47.410421" lon="10.296652"><ele>970.0</ele></trkpt><trkpt lat="47.410396" lon="10.297477"><ele>986.0</ele></trkpt><trkpt lat="47.410859" lon="10.297944"><ele>1001.0</ele></trkpt><trkpt lat="47.411223" lon="10.298461"><ele>1017.0</ele></trkpt><trkpt lat="47.41141" lon="10.298974"><ele>1032.0</ele></trkpt><trkpt lat="47.411385" lon="10.299318"><ele>1035.0</ele></trkpt><trkpt lat="47.411378" lon="10.298944"><ele>1034.0</ele></trkpt><trkpt lat="47.411286" lon="10.29861"><ele>1033.0</ele></trkpt><trkpt lat="47.411341" lon="10.298852"><ele>1032.0</ele></trkpt><trkpt lat="47.411402" lon="10.298837"><ele>1033.0</ele></trkpt><trkpt lat="47.411435" lon="10.299153"><ele>1040.0</ele></trkpt><trkpt lat="47.411422" lon="10.299329"><ele>1044.0</ele></trkpt><trkpt lat="47.411215" lon="10.299479"><ele>1051.0</ele></trkpt><trkpt lat="47.410808" lon="10.299414"><ele>1057.0</ele></trkpt><trkpt lat="47.410703" lon="10.299313"><ele>1058.0</ele></trkpt><trkpt lat="47.410458" lon="10.299384"><ele>1061.0</ele></trkpt><trkpt lat="47.410409" lon="10.299452"><ele>1061.0</ele></trkpt><trkpt lat="47.410309" lon="10.299374"><ele>1062.0</ele></trkpt><trkpt lat="47.40969" lon="10.29955"><ele>1069.0</ele></trkpt><trkpt lat="47.409354" lon="10.299726"><ele>1073.0</ele></trkpt><trkpt lat="47.409118" lon="10.30021"><ele>1080.0</ele></trkpt><trkpt lat="47.40895" lon="10.301555"><ele>1101.0</ele></trkpt><trkpt lat="47.408998" lon="10.3023"><ele>1113.0</ele></trkpt><trkpt lat="47.409093" lon="10.302709"><ele>1118.0</ele></trkpt><trkpt lat="47.409042" lon="10.302747"><ele>1120.0</ele></trkpt><trkpt lat="47.409094" lon="10.302809"><ele>1121.0</ele></trkpt><trkpt lat="47.409108" lon="10.302732"><ele>1122.0</ele></trkpt><trkpt lat="47.4092" lon="10.303106"><ele>1130.0</ele></trkpt><trkpt lat="47.409188" lon="10.303351"><ele>1136.0</ele></trkpt><trkpt lat="47.409324" lon="10.303782"><ele>1150.0</ele></trkpt><trkpt lat="47.409346" lon="10.304112"><ele>1159.0</ele></trkpt><trkpt lat="47.408796" lon="10.305"><ele>1173.0</ele></trkpt><trkpt lat="47.408899" lon="10.305908"><ele>1178.0</ele></trkpt><trkpt lat="47.409113" lon="10.306915"><ele>1187.0</ele></trkpt><trkpt lat="47.409576" lon="10.308075"><ele>1208.0</ele></trkpt><trkpt lat="47.40993" lon="10.308781"><ele>1222.0</ele></trkpt><trkpt lat="47.410058" lon="10.309331"><ele>1229.0</ele></trkpt><trkpt lat="47.409967" lon="10.310958"><ele>1243.0</ele></trkpt><trkpt lat="47.409774" lon="10.311608"><ele>1247.0</ele></trkpt><trkpt lat="47.409247" lon="10.312891"><ele>1259.0</ele></trkpt><trkpt lat="47.409299" lon="10.31367"><ele>1268.0</ele></trkpt><trkpt lat="47.409104" lon="10.314508"><ele>1273.0</ele></trkpt><trkpt lat="47.409045" lon="10.315311"><ele>1275.0</ele></trkpt><trkpt lat="47.409042" lon="10.31673"><ele>1280.0</ele></trkpt><trkpt lat="47.409174" lon="10.318835"><ele>1286.0</ele></trkpt><trkpt lat="47.409134" lon="10.320213"><ele>1291.0</ele></trkpt><trkpt lat="47.409052" lon="10.320899"><ele>1294.0</ele></trkpt><trkpt lat="47.408821" lon="10.321873"><ele>1301.0</ele></trkpt><trkpt lat="47.408645" lon="10.322317"><ele>1306.0</ele></trkpt><trkpt lat="47.408512" lon="10.323066"><ele>1316.0</ele></trkpt><trkpt lat="47.408507" lon="10.32375"><ele>1324.0</ele></trkpt><trkpt lat="47.408636" lon="10.324522"><ele>1331.0</ele></trkpt><trkpt lat="47.408399" lon="10.328388"><ele>1353.0</ele></trkpt><trkpt lat="47.408507" lon="10.329389"><ele>1363.0</ele></trkpt><trkpt lat="47.408473" lon="10.330397"><ele>1369.0</ele></trkpt><trkpt lat="47.408508" lon="10.330827"><ele>1370.0</ele></trkpt><trkpt lat="47.408563" lon="10.330837"><ele>1370.0</ele></trkpt><trkpt lat="47.408504" lon="10.330862"><ele>1371.0</ele></trkpt><trkpt lat="47.408822" lon="10.332823"><ele>1404.0</ele></trkpt><trkpt lat="47.409349" lon="10.334209"><ele>1434.0</ele></trkpt><trkpt lat="47.40962" lon="10.334741"><ele>1449.0</ele></trkpt><trkpt lat="47.40984" lon="10.335019"><ele>1459.0</ele></trkpt><trkpt lat="47.409832" lon="10.3351"><ele>1462.0</ele></trkpt><trkpt lat="47.41061" lon="10.335317"><ele>1499.0</ele></trkpt><trkpt lat="47.411521" lon="10.335757"><ele>1562.0</ele></trkpt><trkpt lat="47.411808" lon="10.335832"><ele>1578.0</ele></trkpt><trkpt lat="47.411805" lon="10.335761"><ele>1581.0</ele></trkpt><trkpt lat="47.411869" lon="10.335885"><ele>1587.0</ele></trkpt><trkpt lat="47.412151" lon="10.33598"><ele>1600.0</ele></trkpt><trkpt lat="47.412315" lon="10.336337"><ele>1611.0</ele></trkpt><trkpt lat="47.412349" lon="10.336775"><ele>1617.0</ele></trkpt><trkpt lat="47.412331" lon="10.336643"><ele>1618.0</ele></trkpt><trkpt lat="47.412335" lon="10.336724"><ele>1619.0</ele></trkpt><trkpt lat="47.412565" lon="10.33756"><ele>1629.0</ele></trkpt><trkpt lat="47.41343" lon="10.339281"><ele>1677.0</ele></trkpt><trkpt lat="47.413381" lon="10.339434"><ele>1680.0</ele></trkpt><trkpt lat="47.413135" lon="10.33968"><ele>1686.0</ele></trkpt><trkpt lat="47.412939" lon="10.34008"><ele>1690.0</ele></trkpt><trkpt lat="47.411959" lon="10.34057"><ele>1702.0</ele></trkpt><trkpt lat="47.411698" lon="10.341159"><ele>1711.0</ele></trkpt><trkpt lat="47.4118" lon="10.341231"><ele>1714.0</ele></trkpt><trkpt lat="47.411714" lon="10.341533"><ele>1720.0</ele></trkpt><trkpt lat="47.411827" lon="10.341519"><ele>1723.0</ele></trkpt><trkpt lat="47.411813" lon="10.341604"><ele>1725.0</ele></trkpt><trkpt lat="47.411611" lon="10.341913"><ele>1733.0</ele></trkpt><trkpt lat="47.411639" lon="10.341986"><ele>1734.0</ele></trkpt><trkpt lat="47.41186" lon="10.341993"><ele>1741.0</ele></trkpt><trkpt lat="47.411586" lon="10.342299"><ele>1750.0</ele></trkpt><trkpt lat="47.411578" lon="10.342388"><ele>1752.0</ele></trkpt><trkpt lat="47.41184" lon="10.342542"><ele>1760.0</ele></trkpt><trkpt lat="47.41201" lon="10.342521"><ele>1766.0</ele></trkpt><trkpt lat="47.412238" lon="10.342993"><ele>1784.0</ele></trkpt><trkpt lat="47.412239" lon="10.343475"><ele>1801.0</ele></trkpt><trkpt lat="47.412332" lon="10.343688"><ele>1809.0</ele></trkpt><trkpt lat="47.412477" lon="10.344652"><ele>1839.0</ele></trkpt><trkpt lat="47.412447" lon="10.34498"><ele>1845.0</ele></trkpt><trkpt lat="47.41256" lon="10.345823"><ele>1863.0</ele></trkpt><trkpt lat="47.412399" lon="10.346451"><ele>1875.0</ele></trkpt><trkpt lat="47.412447" lon="10.346607"><ele>1878.0</ele></trkpt><trkpt lat="47.412698" lon="10.346818"><ele>1885.0</ele></trkpt><trkpt lat="47.412733" lon="10.346983"><ele>1888.0</ele></trkpt><trkpt lat="47.412627" lon="10.34745"><ele>1895.0</ele></trkpt><trkpt lat="47.412575" lon="10.347475"><ele>1897.0</ele></trkpt><trkpt lat="47.412629" lon="10.347494"><ele>1898.0</ele></trkpt><trkpt lat="47.41257" lon="10.34748"><ele>1899.0</ele></trkpt><trkpt lat="47.412978" lon="10.347332"><ele>1908.0</ele></trkpt><trkpt lat="47.413041" lon="10.347605"><ele>1913.0</ele></trkpt><trkpt lat="47.413315" lon="10.34745"><ele>1918.0</ele></trkpt><trkpt lat="47.413798" lon="10.347398"><ele>1922.0</ele></trkpt><trkpt lat="47.414032" lon="10.347264"><ele>1923.0</ele></trkpt><trkpt lat="47.414204" lon="10.347285"><ele>1924.0</ele></trkpt><trkpt lat="47.414201" lon="10.347364"><ele>1924.0</ele></trkpt><trkpt lat="47.413975" lon="10.347354"><ele>1924.0</ele></trkpt><trkpt lat="47.414066" lon="10.347555"><ele>1924.0</ele></trkpt><trkpt lat="47.414019" lon="10.347514"><ele>1924.0</ele></trkpt><trkpt lat="47.414067" lon="10.347354"><ele>1924.0</ele></trkpt><trkpt lat="47.414248" lon="10.347395"><ele>1924.0</ele></trkpt><trkpt lat="47.414112" lon="10.347191"><ele>1924.0</ele></trkpt><trkpt lat="47.414232" lon="10.347332"><ele>1924.0</ele></trkpt><trkpt lat="47.414347" lon="10.347318"><ele>1924.0</ele></trkpt><trkpt lat="47.415513" lon="10.346699"><ele>1940.0</ele></trkpt><trkpt lat="47.415972" lon="10.346009"><ele>1950.0</ele></trkpt><trkpt lat="47.416743" lon="10.345361"><ele>1961.0</ele></trkpt><trkpt lat="47.417005" lon="10.34504"><ele>1969.0</ele></trkpt><trkpt lat="47.417173" lon="10.344952"><ele>1974.0</ele></trkpt><trkpt lat="47.417495" lon="10.345524"><ele>1986.0</ele></trkpt><trkpt lat="47.418036" lon="10.345787"><ele>2000.0</ele></trkpt><trkpt lat="47.418327" lon="10.34584"><ele>2006.0</ele></trkpt><trkpt lat="47.419079" lon="10.345456"><ele>2024.0</ele></trkpt><trkpt lat="47.419395" lon="10.345665"><ele>2032.0</ele></trkpt><trkpt lat="47.419615" lon="10.345922"><ele>2039.0</ele></trkpt><trkpt lat="47.419756" lon="10.346376"><ele>2047.0</ele></trkpt><trkpt lat="47.419701" lon="10.346368"><ele>2048.0</ele></trkpt><trkpt lat="47.420018" lon="10.346608"><ele>2054.0</ele></trkpt><trkpt lat="47.420621" lon="10.347255"><ele>2071.0</ele></trkpt><trkpt lat="47.420784" lon="10.34737"><ele>2075.0</ele></trkpt><trkpt lat="47.420966" lon="10.347404"><ele>2080.0</ele></trkpt><trkpt lat="47.421065" lon="10.34674"><ele>2090.0</ele></trkpt><trkpt lat="47.42132" lon="10.345996"><ele>2104.0</ele></trkpt><trkpt lat="47.421428" lon="10.345283"><ele>2115.0</ele></trkpt><trkpt lat="47.421447" lon="10.345033"><ele>2118.0</ele></trkpt><trkpt lat="47.421341" lon="10.344302"><ele>2130.0</ele></trkpt><trkpt lat="47.421414" lon="10.344168"><ele>2133.0</ele></trkpt><trkpt lat="47.421464" lon="10.343763"><ele>2141.0</ele></trkpt><trkpt lat="47.421337" lon="10.343194"><ele>2152.0</ele></trkpt><trkpt lat="47.420896" lon="10.342324"><ele>2169.0</ele></trkpt><trkpt lat="47.421034" lon="10.342057"><ele>2176.0</ele></trkpt><trkpt lat="47.42171" lon="10.341662"><ele>2201.0</ele></trkpt><trkpt lat="47.421824" lon="10.341678"><ele>2204.0</ele></trkpt><trkpt lat="47.42188" lon="10.341825"><ele>2207.0</ele></trkpt><trkpt lat="47.421745" lon="10.342298"><ele>2210.0</ele></trkpt><trkpt lat="47.421637" lon="10.342344"><ele>2209.0</ele></trkpt><trkpt lat="47.421641" lon="10.342184"><ele>2209.0</ele></trkpt><trkpt lat="47.421731" lon="10.342087"><ele>2208.0</ele></trkpt><trkpt lat="47.421682" lon="10.34205"><ele>2209.0</ele></trkpt><trkpt lat="47.42172" lon="10.341991"><ele>2209.0</ele></trkpt><trkpt lat="47.421825" lon="10.34202"><ele>2209.0</ele></trkpt><trkpt lat="47.421851" lon="10.341935"><ele>2210.0</ele></trkpt><trkpt lat="47.421817" lon="10.34226"><ele>2211.0</ele></trkpt><trkpt lat="47.421874" lon="10.342405"><ele>2212.0</ele></trkpt><trkpt lat="47.421835" lon="10.342242"><ele>2212.0</ele></trkpt><trkpt lat="47.421898" lon="10.341947"><ele>2210.0</ele></trkpt><trkpt lat="47.421869" lon="10.341879"><ele>2209.0</ele></trkpt><trkpt lat="47.421736" lon="10.342376"><ele>2207.0</ele></trkpt><trkpt lat="47.42181" lon="10.341968"><ele>2205.0</ele></trkpt><trkpt lat="47.421771" lon="10.341744"><ele>2203.0</ele></trkpt><trkpt lat="47.421696" lon="10.341715"><ele>2201.0</ele></trkpt><trkpt lat="47.421511" lon="10.341776"><ele>2198.0</ele></trkpt><trkpt lat="47.421311" lon="10.34197"><ele>2191.0</ele></trkpt><trkpt lat="47.421036" lon="10.342023"><ele>2183.0</ele></trkpt><trkpt lat="47.420867" lon="10.342387"><ele>2175.0</ele></trkpt><trkpt lat="47.421283" lon="10.343145"><ele>2160.0</ele></trkpt><trkpt lat="47.421433" lon="10.343731"><ele>2147.0</ele></trkpt><trkpt lat="47.421436" lon="10.343818"><ele>2145.0</ele></trkpt><trkpt lat="47.421373" lon="10.34377"><ele>2142.0</ele></trkpt><trkpt lat="47.421335" lon="10.343899"><ele>2139.0</ele></trkpt><trkpt lat="47.421266" lon="10.343878"><ele>2136.0</ele></trkpt><trkpt lat="47.421146" lon="10.344137"><ele>2127.0</ele></trkpt><trkpt lat="47.420987" lon="10.343981"><ele>2121.0</ele></trkpt><trkpt lat="47.420938" lon="10.34407"><ele>2118.0</ele></trkpt><trkpt lat="47.420855" lon="10.343992"><ele>2115.0</ele></trkpt><trkpt lat="47.420755" lon="10.344048"><ele>2108.0</ele></trkpt><trkpt lat="47.420715" lon="10.344144"><ele>2105.0</ele></trkpt><trkpt lat="47.420601" lon="10.344186"><ele>2098.0</ele></trkpt><trkpt lat="47.420596" lon="10.34427"><ele>2095.0</ele></trkpt><trkpt lat="47.420516" lon="10.344265"><ele>2092.0</ele></trkpt><trkpt lat="47.420548" lon="10.344382"><ele>2088.0</ele></trkpt><trkpt lat="47.420411" lon="10.344522"><ele>2082.0</ele></trkpt><trkpt lat="47.420362" lon="10.344478"><ele>2079.0</ele></trkpt><trkpt lat="47.420243" lon="10.344583"><ele>2072.0</ele></trkpt><trkpt lat="47.420186" lon="10.344536"><ele>2069.0</ele></trkpt><trkpt lat="47.420125" lon="10.344684"><ele>2063.0</ele></trkpt><trkpt lat="47.42008" lon="10.344634"><ele>2060.0</ele></trkpt><trkpt lat="47.419997" lon="10.344687"><ele>2057.0</ele></trkpt><trkpt lat="47.419993" lon="10.344797"><ele>2054.0</ele></trkpt><trkpt lat="47.419842" lon="10.344828"><ele>2049.0</ele></trkpt><trkpt lat="47.419819" lon="10.344939"><ele>2046.0</ele></trkpt><trkpt lat="47.41957" lon="10.344776"><ele>2034.0</ele></trkpt><trkpt lat="47.419518" lon="10.344825"><ele>2031.0</ele></trkpt><trkpt lat="47.419416" lon="10.344627"><ele>2026.0</ele></trkpt><trkpt lat="47.419302" lon="10.344717"><ele>2021.0</ele></trkpt><trkpt lat="47.419216" lon="10.344585"><ele>2018.0</ele></trkpt><trkpt lat="47.419078" lon="10.344599"><ele>2014.0</ele></trkpt><trkpt lat="47.418992" lon="10.344531"><ele>2011.0</ele></trkpt><trkpt lat="47.418754" lon="10.344663"><ele>2005.0</ele></trkpt><trkpt lat="47.418657" lon="10.344548"><ele>2003.0</ele></trkpt><trkpt lat="47.418328" lon="10.344638"><ele>1997.0</ele></trkpt><trkpt lat="47.418086" lon="10.344517"><ele>1993.0</ele></trkpt><trkpt lat="47.417877" lon="10.344697"><ele>1989.0</ele></trkpt><trkpt lat="47.416831" lon="10.345219"><ele>1966.0</ele></trkpt><trkpt lat="47.416206" lon="10.345664"><ele>1963.0</ele></trkpt><trkpt lat="47.415951" lon="10.346031"><ele>1956.0</ele></trkpt><trkpt lat="47.415783" lon="10.346147"><ele>1952.0</ele></trkpt><trkpt lat="47.415689" lon="10.346426"><ele>1949.0</ele></trkpt><trkpt lat="47.415594" lon="10.346486"><ele>1947.0</ele></trkpt><trkpt lat="47.415477" lon="10.34671"><ele>1944.0</ele></trkpt><trkpt lat="47.415297" lon="10.346644"><ele>1940.0</ele></trkpt><trkpt lat="47.414208" lon="10.347164"><ele>1925.0</ele></trkpt><trkpt lat="47.413831" lon="10.347069"><ele>1915.0</ele></trkpt><trkpt lat="47.413099" lon="10.347141"><ele>1912.0</ele></trkpt><trkpt lat="47.413151" lon="10.347252"><ele>1911.0</ele></trkpt><trkpt lat="47.413087" lon="10.346909"><ele>1902.0</ele></trkpt><trkpt lat="47.412939" lon="10.346812"><ele>1900.0</ele></trkpt><trkpt lat="47.412842" lon="10.346295"><ele>1888.0</ele></trkpt><trkpt lat="47.412745" lon="10.346245"><ele>1885.0</ele></trkpt><trkpt lat="47.412737" lon="10.346114"><ele>1881.0</ele></trkpt><trkpt lat="47.412604" lon="10.345963"><ele>1875.0</ele></trkpt><trkpt lat="47.412672" lon="10.345764"><ele>1870.0</ele></trkpt><trkpt lat="47.412659" lon="10.345529"><ele>1864.0</ele></trkpt><trkpt lat="47.412512" lon="10.345332"><ele>1859.0</ele></trkpt><trkpt lat="47.412473" lon="10.345203"><ele>1856.0</ele></trkpt><trkpt lat="47.412526" lon="10.345073"><ele>1853.0</ele></trkpt><trkpt lat="47.412424" lon="10.344915"><ele>1848.0</ele></trkpt><trkpt lat="47.412513" lon="10.344757"><ele>1843.0</ele></trkpt><trkpt lat="47.412513" lon="10.34459"><ele>1837.0</ele></trkpt><trkpt lat="47.412439" lon="10.344348"><ele>1831.0</ele></trkpt><trkpt lat="47.412492" lon="10.344275"><ele>1829.0</ele></trkpt><trkpt lat="47.412354" lon="10.343843"><ele>1815.0</ele></trkpt><trkpt lat="47.412392" lon="10.343718"><ele>1812.0</ele></trkpt><trkpt lat="47.412319" lon="10.343436"><ele>1804.0</ele></trkpt><trkpt lat="47.412322" lon="10.342903"><ele>1789.0</ele></trkpt><trkpt lat="47.412171" lon="10.342364"><ele>1770.0</ele></trkpt><trkpt lat="47.412204" lon="10.342199"><ele>1763.0</ele></trkpt><trkpt lat="47.412136" lon="10.342161"><ele>1759.0</ele></trkpt><trkpt lat="47.411993" lon="10.341685"><ele>1740.0</ele></trkpt><trkpt lat="47.412066" lon="10.341478"><ele>1733.0</ele></trkpt><trkpt lat="47.411974" lon="10.341374"><ele>1725.0</ele></trkpt><trkpt lat="47.412029" lon="10.341234"><ele>1719.0</ele></trkpt><trkpt lat="47.411936" lon="10.340774"><ele>1705.0</ele></trkpt><trkpt lat="47.412334" lon="10.34043"><ele>1696.0</ele></trkpt><trkpt lat="47.412692" lon="10.340252"><ele>1690.0</ele></trkpt><trkpt lat="47.412869" lon="10.340259"><ele>1687.0</ele></trkpt><trkpt lat="47.413427" lon="10.339398"><ele>1674.0</ele></trkpt><trkpt lat="47.413395" lon="10.339046"><ele>1671.0</ele></trkpt><trkpt lat="47.413139" lon="10.338251"><ele>1653.0</ele></trkpt><trkpt lat="47.412877" lon="10.338075"><ele>1644.0</ele></trkpt><trkpt lat="47.412629" lon="10.33758"><ele>1629.0</ele></trkpt><trkpt lat="47.412495" lon="10.337177"><ele>1619.0</ele></trkpt><trkpt lat="47.412393" lon="10.336269"><ele>1609.0</ele></trkpt><trkpt lat="47.412341" lon="10.336311"><ele>1606.0</ele></trkpt><trkpt lat="47.412284" lon="10.335967"><ele>1597.0</ele></trkpt><trkpt lat="47.412111" lon="10.335804"><ele>1591.0</ele></trkpt><trkpt lat="47.412004" lon="10.335516"><ele>1586.0</ele></trkpt><trkpt lat="47.411878" lon="10.335522"><ele>1584.0</ele></trkpt><trkpt lat="47.411889" lon="10.335743"><ele>1581.0</ele></trkpt><trkpt lat="47.4118" lon="10.335751"><ele>1578.0</ele></trkpt><trkpt lat="47.411757" lon="10.33559"><ele>1571.0</ele></trkpt><trkpt lat="47.411644" lon="10.335615"><ele>1565.0</ele></trkpt><trkpt lat="47.411592" lon="10.3355"><ele>1562.0</ele></trkpt><trkpt lat="47.411525" lon="10.335558"><ele>1559.0</ele></trkpt><trkpt lat="47.411472" lon="10.335471"><ele>1556.0</ele></trkpt><trkpt lat="47.411338" lon="10.335516"><ele>1550.0</ele></trkpt><trkpt lat="47.411269" lon="10.335335"><ele>1543.0</ele></trkpt><trkpt lat="47.411207" lon="10.335398"><ele>1540.0</ele></trkpt><trkpt lat="47.411126" lon="10.335343"><ele>1537.0</ele></trkpt><trkpt lat="47.411137" lon="10.335259"><ele>1534.0</ele></trkpt><trkpt lat="47.410986" lon="10.335311"><ele>1527.0</ele></trkpt><trkpt lat="47.410956" lon="10.33513"><ele>1520.0</ele></trkpt><trkpt lat="47.410866" lon="10.335236"><ele>1514.0</ele></trkpt><trkpt lat="47.410779" lon="10.335159"><ele>1511.0</ele></trkpt><trkpt lat="47.410659" lon="10.335232"><ele>1505.0</ele></trkpt><trkpt lat="47.410619" lon="10.335146"><ele>1502.0</ele></trkpt><trkpt lat="47.410486" lon="10.33522"><ele>1496.0</ele></trkpt><trkpt lat="47.410363" lon="10.33493"><ele>1486.0</ele></trkpt><trkpt lat="47.410033" lon="10.334942"><ele>1474.0</ele></trkpt><trkpt lat="47.409776" lon="10.334648"><ele>1464.0</ele></trkpt><trkpt lat="47.409401" lon="10.333831"><ele>1453.0</ele></trkpt><trkpt lat="47.409172" lon="10.333512"><ele>1442.0</ele></trkpt><trkpt lat="47.409122" lon="10.33326"><ele>1436.0</ele></trkpt><trkpt lat="47.408941" lon="10.33289"><ele>1425.0</ele></trkpt><trkpt lat="47.408945" lon="10.33246"><ele>1414.0</ele></trkpt><trkpt lat="47.408795" lon="10.332084"><ele>1404.0</ele></trkpt><trkpt lat="47.40858" lon="10.330766"><ele>1387.0</ele></trkpt><trkpt lat="47.408484" lon="10.328257"><ele>1353.0</ele></trkpt><trkpt lat="47.408548" lon="10.32729"><ele>1345.0</ele></trkpt><trkpt lat="47.408671" lon="10.326603"><ele>1339.0</ele></trkpt><trkpt lat="47.408573" lon="10.325542"><ele>1332.0</ele></trkpt><trkpt lat="47.408692" lon="10.324875"><ele>1327.0</ele></trkpt><trkpt lat="47.408666" lon="10.324598"><ele>1324.0</ele></trkpt><trkpt lat="47.40855" lon="10.324602"><ele>1321.0</ele></trkpt><trkpt lat="47.408723" lon="10.321819"><ele>1308.0</ele></trkpt><trkpt lat="47.408824" lon="10.321077"><ele>1297.0</ele></trkpt><trkpt lat="47.408839" lon="10.319306"><ele>1281.0</ele></trkpt><trkpt lat="47.408992" lon="10.317724"><ele>1271.0</ele></trkpt><trkpt lat="47.408926" lon="10.31694"><ele>1267.0</ele></trkpt><trkpt lat="47.408806" lon="10.316507"><ele>1263.0</ele></trkpt><trkpt lat="47.409184" lon="10.31493"><ele>1263.0</ele></trkpt><trkpt lat="47.409243" lon="10.314366"><ele>1259.0</ele></trkpt><trkpt lat="47.409427" lon="10.31381"><ele>1257.0</ele></trkpt><trkpt lat="47.4093" lon="10.313322"><ele>1254.0</ele></trkpt><trkpt lat="47.409298" lon="10.312619"><ele>1249.0</ele></trkpt><trkpt lat="47.409558" lon="10.312178"><ele>1242.0</ele></trkpt><trkpt lat="47.410008" lon="10.310985"><ele>1232.0</ele></trkpt><trkpt lat="47.410051" lon="10.309279"><ele>1220.0</ele></trkpt><trkpt lat="47.409996" lon="10.308841"><ele>1214.0</ele></trkpt><trkpt lat="47.409706" lon="10.308285"><ele>1210.0</ele></trkpt><trkpt lat="47.409659" lon="10.307999"><ele>1206.0</ele></trkpt><trkpt lat="47.409511" lon="10.307818"><ele>1203.0</ele></trkpt><trkpt lat="47.409519" lon="10.307682"><ele>1201.0</ele></trkpt><trkpt lat="47.409391" lon="10.307538"><ele>1196.0</ele></trkpt><trkpt lat="47.409254" lon="10.30721"><ele>1190.0</ele></trkpt><trkpt lat="47.409257" lon="10.307057"><ele>1188.0</ele></trkpt><trkpt lat="47.409138" lon="10.306812"><ele>1185.0</ele></trkpt><trkpt lat="47.409135" lon="10.306542"><ele>1181.0</ele></trkpt><trkpt lat="47.409061" lon="10.306458"><ele>1179.0</ele></trkpt><trkpt lat="47.408909" lon="10.305857"><ele>1171.0</ele></trkpt><trkpt lat="47.40885" lon="10.30491"><ele>1165.0</ele></trkpt><trkpt lat="47.409316" lon="10.30426"><ele>1154.0</ele></trkpt><trkpt lat="47.409344" lon="10.303924"><ele>1148.0</ele></trkpt><trkpt lat="47.409244" lon="10.303632"><ele>1141.0</ele></trkpt><trkpt lat="47.409253" lon="10.303403"><ele>1136.0</ele></trkpt><trkpt lat="47.409194" lon="10.303357"><ele>1133.0</ele></trkpt><trkpt lat="47.409236" lon="10.303184"><ele>1129.0</ele></trkpt><trkpt lat="47.409112" lon="10.302777"><ele>1120.0</ele></trkpt><trkpt lat="47.409103" lon="10.302446"><ele>1114.0</ele></trkpt><trkpt lat="47.409022" lon="10.302305"><ele>1110.0</ele></trkpt><trkpt lat="47.409096" lon="10.302147"><ele>1106.0</ele></trkpt><trkpt lat="47.409008" lon="10.301591"><ele>1097.0</ele></trkpt><trkpt lat="47.409084" lon="10.301243"><ele>1092.0</ele></trkpt><trkpt lat="47.409079" lon="10.300734"><ele>1084.0</ele></trkpt><trkpt lat="47.409167" lon="10.300553"><ele>1081.0</ele></trkpt><trkpt lat="47.409132" lon="10.300316"><ele>1078.0</ele></trkpt><trkpt lat="47.409277" lon="10.299841"><ele>1071.0</ele></trkpt><trkpt lat="47.409549" lon="10.299654"><ele>1065.0</ele></trkpt><trkpt lat="47.410128" lon="10.2995"><ele>1057.0</ele></trkpt><trkpt lat="47.410491" lon="10.299458"><ele>1055.0</ele></trkpt><trkpt lat="47.410613" lon="10.29953"><ele>1052.0</ele></trkpt><trkpt lat="47.411229" lon="10.29954"><ele>1044.0</ele></trkpt><trkpt lat="47.411262" lon="10.299454"><ele>1042.0</ele></trkpt><trkpt lat="47.411348" lon="10.299469"><ele>1041.0</ele></trkpt><trkpt lat="47.41147" lon="10.299249"><ele>1038.0</ele></trkpt><trkpt lat="47.411453" lon="10.298859"><ele>1032.0</ele></trkpt><trkpt lat="47.411344" lon="10.298695"><ele>1027.0</ele></trkpt><trkpt lat="47.411324" lon="10.298412"><ele>1021.0</ele></trkpt><trkpt lat="47.411255" lon="10.298282"><ele>1019.0</ele></trkpt><trkpt lat="47.411073" lon="10.298251"><ele>1013.0</ele></trkpt><trkpt lat="47.411046" lon="10.298002"><ele>1010.0</ele></trkpt><trkpt lat="47.41054" lon="10.297466"><ele>988.0</ele></trkpt><trkpt lat="47.41043" lon="10.297229"><ele>980.0</ele></trkpt><trkpt lat="47.410513" lon="10.296926"><ele>975.0</ele></trkpt><trkpt lat="47.410628" lon="10.295724"><ele>950.0</ele></trkpt><trkpt lat="47.410307" lon="10.295376"><ele>945.0</ele></trkpt><trkpt lat="47.409769" lon="10.295231"><ele>939.0</ele></trkpt><trkpt lat="47.409639" lon="10.295119"><ele>937.0</ele></trkpt><trkpt lat="47.409275" lon="10.295112"><ele>931.0</ele></trkpt><trkpt lat="47.408947" lon="10.294943"><ele>925.0</ele></trkpt><trkpt lat="47.408734" lon="10.294955"><ele>920.0</ele></trkpt><trkpt lat="47.408506" lon="10.294642"><ele>915.0</ele></trkpt><trkpt lat="47.408286" lon="10.294225"><ele>907.0</ele></trkpt><trkpt lat="47.408278" lon="10.294094"><ele>905.0</ele></trkpt><trkpt lat="47.407848" lon="10.293466"><ele>891.0</ele></trkpt><trkpt lat="47.407569" lon="10.293449"><ele>887.0</ele></trkpt><trkpt lat="47.40729" lon="10.293348"><ele>881.0</ele></trkpt><trkpt lat="47.407189" lon="10.2932"><ele>878.0</ele></trkpt><trkpt lat="47.407246" lon="10.292639"><ele>865.0</ele></trkpt><trkpt lat="47.407123" lon="10.292255"><ele>858.0</ele></trkpt><trkpt lat="47.407254" lon="10.291615"><ele>848.0</ele></trkpt><trkpt lat="47.407213" lon="10.291299"><ele>845.0</ele></trkpt><trkpt lat="47.407268" lon="10.291113"><ele>842.0</ele></trkpt><trkpt lat="47.407257" lon="10.290041"><ele>826.0</ele></trkpt></trkseg></trk></gpx>
