<?xml version="1.0" encoding="UTF-8"?>
<gpx xmlns="http://www.topografix.com/GPX/1/1" xmlns:gpxtpx="http://www.garmin.com/xmlschemas/TrackPointExtension/v1" xmlns:gpxtrkx="http://www.garmin.com/xmlschemas/TrackStatsExtension/v1" xmlns:gpxx="http://www.garmin.com/xmlschemas/GpxExtensions/v3" xmlns:xsi="https://www.w3.org/2001/XMLSchema-instance" creator="bergfex GmbH" version="1.1" xsi:schemaLocation="https://www.topografix.com/GPX/1/1 https://www.topografix.com/GPX/1/1/gpx.xsd"><metadata><link href="https://www.bergfex.at"><text>bergfex GmbH</text></link></metadata><trk><name>Baad - Mittlere Spitalalpe - Güntlespitze - Üntschenspitze</name><extensions><gpxtrkx:TrackStatsExtension><gpxtrkx:Distance>11400</gpxtrkx:Distance><gpxtrkx:TotalElapsedTime>20941</gpxtrkx:TotalElapsedTime><gpxtrkx:Ascent>1093</gpxtrkx:Ascent><gpxtrkx:Descent>1099</gpxtrkx:Descent><gpxtrkx:MaxElevation>2101</gpxtrkx:MaxElevation><gpxtrkx:MinElevation>1229</gpxtrkx:MinElevation></gpxtrkx:TrackStatsExtension></extensions><trkseg><trkpt lat="47.309089799" lon="10.119324646"><ele>1232.0</ele></trkpt><trkpt lat="47.309687059" lon="10.117347972"><ele>1244.0</ele></trkpt><trkpt lat="47.309205383" lon="10.115394486"><ele>1260.0</ele></trkpt><trkpt lat="47.307964281" lon="10.112171707"><ele>1302.0</ele></trkpt><trkpt lat="47.307823222" lon="10.111505461"><ele>1307.0</ele></trkpt><trkpt lat="47.307106174" lon="10.110326716"><ele>1319.0</ele></trkpt><trkpt lat="47.306560281" lon="10.109915117"><ele>1329.0</ele></trkpt><trkpt lat="47.306094486" lon="10.109429878"><ele>1339.0</ele></trkpt><trkpt lat="47.304919403" lon="10.107770483"><ele>1360.0</ele></trkpt><trkpt lat="47.30447657" lon="10.106488741"><ele>1363.0</ele></trkpt><trkpt lat="47.304042875" lon="10.105958474"><ele>1369.0</ele></trkpt><trkpt lat="47.303339122" lon="10.103307942"><ele>1388.0</ele></trkpt><trkpt lat="47.303781811" lon="10.102996579"><ele>1392.0</ele></trkpt><trkpt lat="47.304076702" lon="10.10254188"><ele>1412.0</ele></trkpt><trkpt lat="47.303855579" lon="10.099791824"><ele>1469.0</ele></trkpt><trkpt lat="47.304640496" lon="10.098928376"><ele>1521.0</ele></trkpt><trkpt lat="47.304655917" lon="10.098237886"><ele>1533.0</ele></trkpt><trkpt lat="47.304517583" lon="10.096862842"><ele>1549.0</ele></trkpt><trkpt lat="47.304571858" lon="10.096179686"><ele>1564.0</ele></trkpt><trkpt lat="47.305159704" lon="10.092775099"><ele>1618.0</ele></trkpt><trkpt lat="47.30539495" lon="10.092126642"><ele>1631.0</ele></trkpt><trkpt lat="47.305473453" lon="10.091453658"><ele>1649.0</ele></trkpt><trkpt lat="47.305423214" lon="10.090902545"><ele>1660.0</ele></trkpt><trkpt lat="47.305749781" lon="10.089574458"><ele>1696.0</ele></trkpt><trkpt lat="47.306238858" lon="10.089092667"><ele>1713.0</ele></trkpt><trkpt lat="47.306591437" lon="10.088498396"><ele>1740.0</ele></trkpt><trkpt lat="47.307093939" lon="10.088032674"><ele>1762.0</ele></trkpt><trkpt lat="47.307113007" lon="10.087405806"><ele>1775.0</ele></trkpt><trkpt lat="47.306488865" lon="10.087109297"><ele>1773.0</ele></trkpt><trkpt lat="47.305818235" lon="10.087029706"><ele>1773.0</ele></trkpt><trkpt lat="47.305177657" lon="10.086829505"><ele>1786.0</ele></trkpt><trkpt lat="47.304683555" lon="10.087247062"><ele>1784.0</ele></trkpt><trkpt lat="47.30434913" lon="10.087092084"><ele>1794.0</ele></trkpt><trkpt lat="47.304357069" lon="10.085710122"><ele>1830.0</ele></trkpt><trkpt lat="47.304445301" lon="10.085025204"><ele>1848.0</ele></trkpt><trkpt lat="47.304881" lon="10.083806044"><ele>1881.0</ele></trkpt><trkpt lat="47.304410981" lon="10.083352279"><ele>1889.0</ele></trkpt><trkpt lat="47.303891536" lon="10.081348132"><ele>1928.0</ele></trkpt><trkpt lat="47.30282981" lon="10.080535499"><ele>1938.0</ele></trkpt><trkpt lat="47.302626424" lon="10.079875116"><ele>1961.0</ele></trkpt><trkpt lat="47.302184635" lon="10.079419139"><ele>1995.0</ele></trkpt><trkpt lat="47.301571095" lon="10.079636441"><ele>2014.0</ele></trkpt><trkpt lat="47.301130284" lon="10.079977998"><ele>2029.0</ele></trkpt><trkpt lat="47.301070592" lon="10.079290083"><ele>2047.0</ele></trkpt><trkpt lat="47.300880104" lon="10.078646142"><ele>2051.0</ele></trkpt><trkpt lat="47.300424881" lon="10.078137161"><ele>2050.0</ele></trkpt><trkpt lat="47.300029129" lon="10.077571823"><ele>2054.0</ele></trkpt><trkpt lat="47.299476187" lon="10.07717641"><ele>2053.0</ele></trkpt><trkpt lat="47.299226841" lon="10.076554377"><ele>2053.0</ele></trkpt><trkpt lat="47.299158391" lon="10.07586757"><ele>2043.0</ele></trkpt><trkpt lat="47.2991579" lon="10.075177688"><ele>2019.0</ele></trkpt><trkpt lat="47.29936518" lon="10.073812991"><ele>1983.0</ele></trkpt><trkpt lat="47.299725984" lon="10.072481194"><ele>1962.0</ele></trkpt><trkpt lat="47.300207637" lon="10.071185859"><ele>1951.0</ele></trkpt><trkpt lat="47.300509213" lon="10.069839526"><ele>1966.0</ele></trkpt><trkpt lat="47.300728826" lon="10.069189592"><ele>1976.0</ele></trkpt><trkpt lat="47.30133997" lon="10.06795389"><ele>1999.0</ele></trkpt><trkpt lat="47.302341195" lon="10.067007713"><ele>2037.0</ele></trkpt><trkpt lat="47.302792359" lon="10.066489627"><ele>2056.0</ele></trkpt><trkpt lat="47.303131168" lon="10.065889325"><ele>2064.0</ele></trkpt><trkpt lat="47.303734922" lon="10.06392429"><ele>2038.0</ele></trkpt><trkpt lat="47.303964537" lon="10.062586906"><ele>2056.0</ele></trkpt><trkpt lat="47.304310938" lon="10.062024356"><ele>2071.0</ele></trkpt><trkpt lat="47.304200338" lon="10.060746626"><ele>2101.0</ele></trkpt><trkpt lat="47.304251903" lon="10.062113731"><ele>2068.0</ele></trkpt><trkpt lat="47.303870893" lon="10.062676464"><ele>2053.0</ele></trkpt><trkpt lat="47.303694073" lon="10.064036878"><ele>2042.0</ele></trkpt><trkpt lat="47.303233948" lon="10.065334993"><ele>2062.0</ele></trkpt><trkpt lat="47.30294523" lon="10.065959384"><ele>2062.0</ele></trkpt><trkpt lat="47.302563618" lon="10.066532013"><ele>2047.0</ele></trkpt><trkpt lat="47.301607252" lon="10.067527746"><ele>2009.0</ele></trkpt><trkpt lat="47.300599409" lon="10.069330623"><ele>1973.0</ele></trkpt><trkpt lat="47.300273311" lon="10.070671395"><ele>1953.0</ele></trkpt><trkpt lat="47.299452087" lon="10.073307896"><ele>1969.0</ele></trkpt><trkpt lat="47.299297545" lon="10.073980735"><ele>1988.0</ele></trkpt><trkpt lat="47.299109682" lon="10.075348272"><ele>2025.0</ele></trkpt><trkpt lat="47.299323399" lon="10.077358515"><ele>2053.0</ele></trkpt><trkpt lat="47.299302711" lon="10.078020458"><ele>2038.0</ele></trkpt><trkpt lat="47.299474776" lon="10.078680865"><ele>2020.0</ele></trkpt><trkpt lat="47.299406958" lon="10.079365599"><ele>1994.0</ele></trkpt><trkpt lat="47.298760687" lon="10.081325174"><ele>1909.0</ele></trkpt><trkpt lat="47.298751197" lon="10.082016102"><ele>1894.0</ele></trkpt><trkpt lat="47.2985776" lon="10.083384245"><ele>1861.0</ele></trkpt><trkpt lat="47.297954652" lon="10.085358324"><ele>1816.0</ele></trkpt><trkpt lat="47.297812814" lon="10.086032803"><ele>1794.0</ele></trkpt><trkpt lat="47.297941093" lon="10.089484406"><ele>1689.0</ele></trkpt><trkpt lat="47.297819275" lon="10.090160625"><ele>1679.0</ele></trkpt><trkpt lat="47.297368587" lon="10.091467056"><ele>1667.0</ele></trkpt><trkpt lat="47.297219935" lon="10.092140059"><ele>1664.0</ele></trkpt><trkpt lat="47.297232229" lon="10.093507396"><ele>1628.0</ele></trkpt><trkpt lat="47.297035797" lon="10.094130883"><ele>1628.0</ele></trkpt><trkpt lat="47.297682557" lon="10.095082062"><ele>1585.0</ele></trkpt><trkpt lat="47.297929059" lon="10.096378526"><ele>1574.0</ele></trkpt><trkpt lat="47.298257301" lon="10.096955101"><ele>1559.0</ele></trkpt><trkpt lat="47.298353383" lon="10.097617085"><ele>1557.0</ele></trkpt><trkpt lat="47.2986987" lon="10.098178045"><ele>1551.0</ele></trkpt><trkpt lat="47.299233875" lon="10.099435446"><ele>1538.0</ele></trkpt><trkpt lat="47.299669381" lon="10.099955815"><ele>1533.0</ele></trkpt><trkpt lat="47.299944066" lon="10.100587407"><ele>1531.0</ele></trkpt><trkpt lat="47.300345958" lon="10.101907815"><ele>1529.0</ele></trkpt><trkpt lat="47.30105545" lon="10.103051338"><ele>1506.0</ele></trkpt><trkpt lat="47.301139813" lon="10.103650552"><ele>1494.0</ele></trkpt><trkpt lat="47.301734045" lon="10.103926314"><ele>1466.0</ele></trkpt><trkpt lat="47.30224578" lon="10.10431173"><ele>1447.0</ele></trkpt><trkpt lat="47.30274751" lon="10.105594029"><ele>1433.0</ele></trkpt><trkpt lat="47.303191491" lon="10.106112661"><ele>1411.0</ele></trkpt><trkpt lat="47.303778974" lon="10.106473068"><ele>1385.0</ele></trkpt><trkpt lat="47.304424321" lon="10.106601504"><ele>1366.0</ele></trkpt><trkpt lat="47.304915641" lon="10.10777075"><ele>1360.0</ele></trkpt><trkpt lat="47.305684869" lon="10.108884797"><ele>1344.0</ele></trkpt><trkpt lat="47.306097111" lon="10.109437392"><ele>1339.0</ele></trkpt><trkpt lat="47.30656998" lon="10.109915947"><ele>1329.0</ele></trkpt><trkpt lat="47.307111581" lon="10.110335689"><ele>1319.0</ele></trkpt><trkpt lat="47.307839519" lon="10.111507851"><ele>1307.0</ele></trkpt><trkpt lat="47.307956632" lon="10.112180306"><ele>1302.0</ele></trkpt><trkpt lat="47.308964934" lon="10.114749678"><ele>1267.0</ele></trkpt><trkpt lat="47.309700414" lon="10.117357883"><ele>1244.0</ele></trkpt><trkpt lat="47.30945462" lon="10.118003662"><ele>1241.0</ele></trkpt><trkpt lat="47.309096229" lon="10.119333594"><ele>1232.0</ele></trkpt><trkpt lat="47.30928055" lon="10.119858781"><ele>1229.0</ele></trkpt></trkseg></trk></gpx>
